STARLINK-5557           
1 55770U 23028AF  23083.25001157  .00135020  00000+0  38543-2 0  9991
2 55770  53.0210 342.1226 0005569 178.6727 181.2777 15.35046630  3885
STARLINK-5591           
1 55771U 23028AG  23083.16667824  .00173424  00000+0  49290-2 0  9992
2 55771  53.0212 342.5142 0005554 177.9305  81.2545 15.35004618  3878
STARLINK-5835           
1 55772U 23028AH  23083.16667824  .00173424  00000+0  49290-2 0  9993
2 55772  53.0212 342.5142 0005554 177.9305  81.2545 15.35004618  3879
STARLINK-5833           
1 55773U 23028AJ  23083.16667824  .00173424  00000+0  49290-2 0  9994
2 55773  53.0212 342.5142 0005554 177.9305  81.2545 15.35004618  3870
STARLINK-5812           
1 55774U 23028AK  23083.16667824  .00173424  00000+0  49290-2 0  9995
2 55774  53.0212 342.5142 0005554 177.9305  81.2545 15.35004618  3871
STARLINK-5809           
1 55775U 23028AL  23083.16667824  .00173424  00000+0  49290-2 0  9996
2 55775  53.0212 342.5142 0005554 177.9305  81.2545 15.35004618  3872
STARLINK-5810           
1 55776U 23028AM  23083.16667824  .00173424  00000+0  49290-2 0  9997
2 55776  53.0212 342.5142 0005554 177.9305  81.2545 15.35004618  3873
STARLINK-5814           
1 55777U 23028AN  23083.16667824  .00173424  00000+0  49290-2 0  9998
2 55777  53.0212 342.5142 0005554 177.9305  81.2545 15.35004618  3874
STARLINK-5816           
1 55778U 23028AP  23083.16667824  .00173424  00000+0  49290-2 0  9999
2 55778  53.0212 342.5142 0005554 177.9305  81.2545 15.35004618  3875
STARLINK-5817           
1 55779U 23028AQ  23083.16667824  .00173424  00000+0  49290-2 0  9990
2 55779  53.0212 342.5142 0005554 177.9305  81.2545 15.35004618  3876
STARLINK-5819           
1 55780U 23028AR  23083.16667824  .00173424  00000+0  49290-2 0  9992
2 55780  53.0212 342.5142 0005554 177.9305  81.2545 15.35004618  3878
STARLINK-5820           
1 55781U 23028AS  23083.16667824  .00173424  00000+0  49290-2 0  9993
2 55781  53.0212 342.5142 0005554 177.9305  81.2545 15.35004618  3879
STARLINK-5826           
1 55782U 23028AT  23083.16667824  .00173424  00000+0  49290-2 0  9994
2 55782  53.0212 342.5142 0005554 177.9305  81.2545 15.35004618  3870
STARLINK-5825           
1 55783U 23028AU  23083.16667824  .00173424  00000+0  49290-2 0  9995
2 55783  53.0212 342.5142 0005554 177.9305  81.2545 15.35004618  3871
STARLINK-5797           
1 55784U 23028AV  23083.16667824  .00173424  00000+0  49290-2 0  9996
2 55784  53.0212 342.5142 0005554 177.9305  81.2545 15.35004618  3872
STARLINK-5818           
1 55785U 23028AW  23083.16667824  .00173424  00000+0  49290-2 0  9997
2 55785  53.0212 342.5142 0005554 177.9305  81.2545 15.35004618  3862
STARLINK-5823           
1 55786U 23028AX  23083.25001157  .00135020  00000+0  38543-2 0  9998
2 55786  53.0210 342.1226 0005569 178.6727 181.2777 15.35046630  3882
STARLINK-5811           
1 55787U 23028AY  23083.16667824  .00173424  00000+0  49290-2 0  9999
2 55787  53.0212 342.5142 0005554 177.9305  81.2545 15.35004618  3864
STARLINK-5804           
1 55788U 23028AZ  23083.16667824  .00173424  00000+0  49290-2 0  9990
2 55788  53.0212 342.5142 0005554 177.9305  81.2545 15.35004618  3865
STARLINK-5815           
1 55789U 23028BA  23083.16667824  .00173424  00000+0  49290-2 0  9991
2 55789  53.0212 342.5142 0005554 177.9305  81.2545 15.35004618  3866
STARLINK-5813           
1 55790U 23028BB  23083.16667824  .00173424  00000+0  49290-2 0  9993
2 55790  53.0212 342.5142 0005554 177.9305  81.2545 15.35004618  3868
STARLINK-5807           
1 55791U 23028BC  23083.16667824  .00173424  00000+0  49290-2 0  9994
2 55791  53.0212 342.5142 0005554 177.9305  81.2545 15.35004618  3869
ONEWEB-0530             
1 55796U 23029A   23083.26902874  .00027447  00000+0  27354-2 0  9998
2 55796  86.5135 192.9441 0010642 158.9568 201.2099 14.91420443  2868
ONEWEB-0534             
1 55797U 23029B   23083.26957555  .00029084  00000+0  29021-2 0  9997
2 55797  86.5093 192.9352 0010416 160.2010 199.9624 14.91366380  2844
ONEWEB-0556             
1 55798U 23029C   23083.25001157  .00135020  00000+0  38543-2 0  9992
2 55798  53.0210 342.1226 0005569 178.6727 181.2777 15.35046630  2840
ONEWEB-0562             
1 55799U 23029D   23083.06905227  .00317567  00000+0  30005-1 0  9995
2 55799  86.5095 193.0256 0005539 180.7128 179.4093 14.91943901  2810
ONEWEB-0563             
1 55800U 23029E   23083.06796251  .00199944  00000+0  19117-1 0  9991
2 55800  86.5164 193.0359 0011527 210.5401 149.5158 14.92120984  2813
ONEWEB-0564             
1 55801U 23029F   23082.32902152  .00259893  00000+0  24737-1 0  9993
2 55801  86.5090 193.3526 0009883 183.2081 176.9085 14.91967882  2024
ONEWEB-0638             
1 55802U 23029G   23083.26273127  .00028186  00000+0  27614-2 0  9998
2 55802  86.5123 192.9388 0013280 161.6034 198.5677 14.92076032  2865
ONEWEB-0639             
1 55803U 23029H   23083.25001157  .00135020  00000+0  38543-2 0  9999
2 55803  53.0210 342.1226 0005569 178.6727 181.2777 15.35046630  2847
ONEWEB-0640             
1 55804U 23029J   23083.25960951  .00024693  00000+0  24005-2 0  9997
2 55804  86.5108 192.9346 0013729 167.6770 192.4797 14.92393576  2844
ONEWEB-0641             
1 55805U 23029K   23083.25001157  .00135020  00000+0  38543-2 0  9991
2 55805  53.0210 342.1226 0005569 178.6727 181.2777 15.35046630  2849
ONEWEB-0642             
1 55806U 23029L   23083.25001157  .00135020  00000+0  38543-2 0  9992
2 55806  53.0210 342.1226 0005569 178.6727 181.2777 15.35046630  2840
ONEWEB-0643             
1 55807U 23029M   23083.26313963  .00027214  00000+0  26702-2 0  9994
2 55807  86.5106 192.9329 0012858 161.8669 198.3020 14.92024647  2867
ONEWEB-0644             
1 55808U 23029N   23083.25001157  .00135020  00000+0  38543-2 0  9994
2 55808  53.0210 342.1226 0005569 178.6727 181.2777 15.35046630  2842
ONEWEB-0645             
1 55809U 23029P   23083.25001157  .00135020  00000+0  38543-2 0  9995
2 55809  53.0210 342.1226 0005569 178.6727 181.2777 15.35046630  2843
ONEWEB-0646             
1 55810U 23029Q   23083.33334491  .00211330  00000+0  59358-2 0  9992
2 55810  53.0210 341.7304 0005729 179.7055 281.1565 15.35204562  2857
ONEWEB-0648             
1 55811U 23029R   23083.26226865  .00028113  00000+0  27506-2 0  9995
2 55811  86.5112 192.9353 0013701 161.8427 198.3293 14.92124270  2861
ONEWEB-0649             
1 55812U 23029S   23083.25001157  .00135020  00000+0  38543-2 0  9999
2 55812  53.0210 342.1226 0005569 178.6727 181.2777 15.35046630  2847
ONEWEB-0650             
1 55813U 23029T   23083.25001157  .00135020  00000+0  38543-2 0  9990
2 55813  53.0210 342.1226 0005569 178.6727 181.2777 15.35046630  2848
ONEWEB-0652             
1 55814U 23029U   23083.26395696  .00027980  00000+0  27503-2 0  9995
2 55814  86.5108 192.9331 0013094 160.8942 199.2780 14.91946575  2849
ONEWEB-0653             
1 55815U 23029V   23083.26425240  .00027578  00000+0  27133-2 0  9997
2 55815  86.5118 192.9399 0012880 160.1181 200.0552 14.91913275  2844
ONEWEB-0654             
1 55816U 23029W   23083.25948921  .00029491  00000+0  28635-2 0  9997
2 55816  86.5124 192.9341 0014427 167.2862 192.8733 14.92414584  2841
ONEWEB-0656             
1 55817U 23029X   23083.25674812  .00029356  00000+0  28299-2 0  9999
2 55817  86.5104 192.9325 0014675 172.0631 188.0832 14.92699882  2848
ONEWEB-0657             
1 55818U 23029Y   23083.26512221 -.00206280  00000+0 -21544-1 0  9996
2 55818  86.5137 192.9346 0009568 133.0318 227.1712 14.90934433  2846
ONEWEB-0658             
1 55819U 23029Z   23083.26553450 -.00266902  00000+0 -28281-1 0  9998
2 55819  86.5163 192.9366 0013434 156.6101 203.5740 14.90656353  2847
ONEWEB-0660             
1 55820U 23029AA  23083.26349730  .00028120  00000+0  27607-2 0  9992
2 55820  86.5121 192.9397 0013162 161.8116 198.3586 14.91994262  2865
ONEWEB-0661             
1 55821U 23029AB  23083.25881748  .00010298  00000+0  99952-3 0  9992
2 55821  86.5093 192.9331 0014458 168.0013 192.1562 14.92462914  2845
ONEWEB-0662             
1 55822U 23029AC  23083.26342242  .00028134  00000+0  27615-2 0  9999
2 55822  86.5119 192.9394 0013302 161.4444 198.7272 14.92000435  2864
ONEWEB-0663             
1 55823U 23029AD  23083.25743650  .00029345  00000+0  28342-2 0  9990
2 55823  86.5127 192.9336 0014575 171.0650 189.0840 14.92626445  2846
ONEWEB-0664             
1 55824U 23029AE  23083.25858773  .00029472  00000+0  28550-2 0  9996
2 55824  86.5098 192.9322 0014559 169.1064 191.0482 14.92506709  2843
ONEWEB-0665             
1 55825U 23029AF  23083.25999900  .00036227  00000+0  35196-2 0  9995
2 55825  86.5113 192.9342 0014319 166.6446 193.5164 14.92362732  2844
ONEWEB-0666             
1 55826U 23029AG  23083.25784872  .00024019  00000+0  23235-2 0  9993
2 55826  86.5128 192.9340 0014685 170.1250 190.0270 14.92581918  2847
ONEWEB-0667             
1 55827U 23029AH  23083.25633505  .00029455  00000+0  28362-2 0  9995
2 55827  86.5114 192.9322 0014814 172.7376 187.4070 14.92743109  2844
ONEWEB-0669             
1 55828U 23029AJ  23083.25712957  .00029806  00000+0  28760-2 0  9997
2 55828  86.5104 192.9323 0014627 171.6419 188.5056 14.92660473  2841
ONEWEB-0670             
1 55829U 23029AK  23083.25906066  .00016606  00000+0  16129-2 0  9994
2 55829  86.5121 192.9342 0014220 166.9945 193.1653 14.92447140  2841
ONEWEB-0671             
1 55830U 23029AL  23083.25001157  .00135020  00000+0  38543-2 0  9999
2 55830  53.0210 342.1226 0005569 178.6727 181.2777 15.35046630  2847
ONEWEB-0672             
1 55831U 23029AM  23083.25754093  .00032353  00000+0  31241-2 0  9997
2 55831  86.5104 192.9319 0014589 169.8088 190.3439 14.92620399  2847
ONEWEB-0673             
1 55832U 23029AN  23083.25001157  .00135020  00000+0  38543-2 0  9991
2 55832  53.0210 342.1226 0005569 178.6727 181.2777 15.35046630  2861
